{
"type": "FeatureCollection",
"name": "zone3_lots",
"crs": { "type": "name", "properties": { "name": "urn:ogc:def:crs:OGC:1.3:CRS84" } },
"features": [
{"type":"Feature","properties":{"fid":1,"lot_id":"LOT-001"},"geometry":{"type":"Polygon","coordinates":[[[121.049871694171657,14.691450559026102],[121.049871694171657,14.691450559026102],[121.049941070817795,14.69138062497848],[121.049976854561621,14.691411000375661],[121.049907477915454,14.691483053626468],[121.049871694171657,14.691450559026102]]]}},
{"type":"Feature","properties":{"fid":2,"lot_id":"LOT-002"},"geometry":{"type":"Polygon","coordinates":[[[121.049907477915454,14.691484466435076],[121.049976854561621,14.691411706780192],[121.050014829146875,14.691443494981909],[121.04994326165928,14.691516961030402],[121.049907477915454,14.691484466435076]]]}},
{"type":"Feature","properties":{"fid":3,"lot_id":"LOT-003"},"geometry":{"type":"Polygon","coordinates":[[[121.04994454787078,14.691516841122466],[121.04994454787078,14.691516841122466],[121.050015202369792,14.691444835327291],[121.050052422150515,14.69147778713481],[121.04998239849526,14.691552233792756],[121.04994454787078,14.691516841122466]]]}},
{"type":"Feature","properties":{"fid":4,"lot_id":"LOT-004"},"geometry":{"type":"Polygon","coordinates":[[[121.049983660182733,14.691552844011159],[121.050052422150515,14.691479007572029],[121.05008207180633,14.691504636752077],[121.050011417307346,14.691576032309206],[121.049983660182733,14.691552844011159]]]}},
{"type":"Feature","properties":{"fid":5,"lot_id":"LOT-005"},"geometry":{"type":"Polygon","coordinates":[[[121.050012678994833,14.691577862964206],[121.05008207180633,14.691506467407677],[121.050111090618415,14.69153270680296],[121.050038543588187,14.691602881914397],[121.050012678994833,14.691577862964206]]]}},
{"type":"Feature","properties":{"fid":6,"lot_id":"LOT-006"},"geometry":{"type":"Polygon","coordinates":[[[121.049850302895763,14.69184671130391],[121.049850302895763,14.69184671130391],[121.050019176058427,14.691675934500745],[121.050063039217562,14.691714120629811],[121.049893069475914,14.691888079577764],[121.049850302895763,14.69184671130391]]]}},
{"type":"Feature","properties":{"fid":7,"lot_id":"LOT-007"},"geometry":{"type":"Polygon","coordinates":[[[121.049896359212866,14.691889140302626],[121.050064135796532,14.691715181355523],[121.050109095534651,14.691758671105289],[121.049941318950957,14.69192944784378],[121.049896359212866,14.691889140302626]]]}},
{"type":"Feature","properties":{"fid":8,"lot_id":"LOT-008"},"geometry":{"type":"Polygon","coordinates":[[[121.050170503957418,14.691735335143074],[121.050261520012612,14.691641991269314],[121.050296610539931,14.691671691597115],[121.050202304747785,14.691766096183644],[121.050170503957418,14.691735335143074]]]}},
{"type":"Feature","properties":{"fid":9,"lot_id":"LOT-009"},"geometry":{"type":"Polygon","coordinates":[[[121.049963026805315,14.691910227766595],[121.050059282566608,14.691811176104006],[121.050128914393952,14.691877540722903],[121.050032658632645,14.691973620807092],[121.049963026805315,14.691910227766595]]]}},
{"type":"Feature","properties":{"fid":10,"lot_id":"LOT-010"},"geometry":{"type":"Polygon","coordinates":[[[121.05020607260262,14.691768237194317],[121.050296389178627,14.691674633313516],[121.050354449834671,14.691726635474463],[121.050263058061304,14.691819199290341],[121.05020607260262,14.691768237194317]]]}},
{"type":"Feature","properties":{"fid":11,"lot_id":"LOT-011"},"geometry":{"type":"Polygon","coordinates":[[[121.050010386687887,14.691998086553744],[121.050177042274626,14.691827519631422],[121.050259832469308,14.691910723024794],[121.05009962806659,14.692074009592201],[121.050010386687887,14.691998086553744]]]}},
{"type":"Feature","properties":{"fid":12,"lot_id":"LOT-012"},"geometry":{"type":"Polygon","coordinates":[[[121.050263588972982,14.691819520627813],[121.050355241881775,14.69172724576414],[121.050395456933614,14.691764336645402],[121.05030286879105,14.691857516148586],[121.050263588972982,14.691819520627813]]]}},
{"type":"Feature","properties":{"fid":13,"lot_id":"LOT-013"},"geometry":{"type":"Polygon","coordinates":[[[121.050102728765751,14.692075537937697],[121.050261718505482,14.691912700107464],[121.050305674492321,14.691955218885951],[121.050143879051333,14.692109914797459],[121.050102728765751,14.692075537937697]]]}},
{"type":"Feature","properties":{"fid":14,"lot_id":"LOT-014"},"geometry":{"type":"Polygon","coordinates":[[[121.05014761998639,14.692112628759835],[121.050306609726107,14.691957028195489],[121.050345889544161,14.691995928346962],[121.050191575973258,14.692152433537567],[121.05014761998639,14.692112628759835]]]}},
{"type":"Feature","properties":{"fid":15,"lot_id":"LOT-015"},"geometry":{"type":"Polygon","coordinates":[[[121.050305226162919,14.691857901190374],[121.050396091110542,14.691765483204996],[121.050436846712074,14.691805552546111],[121.050346649889036,14.691896031676444],[121.050305226162919,14.691857901190374]]]}},
{"type":"Feature","properties":{"fid":16,"lot_id":"LOT-016"},"geometry":{"type":"Polygon","coordinates":[[[121.050348654262905,14.691896031676444],[121.050436178587447,14.691807491385012],[121.050483615435112,14.691848206997937],[121.050394086736731,14.69193933238985],[121.050348654262905,14.691896031676444]]]}},
{"type":"Feature","properties":{"fid":17,"lot_id":"LOT-017"},"geometry":{"type":"Polygon","coordinates":[[[121.050187462891415,14.692160920338386],[121.050187462891415,14.692160920338386],[121.050306403329287,14.692037650969588],[121.050399856530476,14.692120743662862],[121.050279028149134,14.692243099878953],[121.050187462891415,14.692160920338386]]]}},
{"type":"Feature","properties":{"fid":18,"lot_id":"LOT-018"},"geometry":{"type":"Polygon","coordinates":[[[121.050436671427917,14.6919947349508],[121.050532012572546,14.691892466957162],[121.050583931017655,14.691938122317378],[121.050489533844726,14.692040390289648],[121.050436671427917,14.6919947349508]]]}},
{"type":"Feature","properties":{"fid":19,"lot_id":"LOT-019"},"geometry":{"type":"Polygon","coordinates":[[[121.050282804036044,14.692243099878953],[121.050401744473916,14.692120743662862],[121.050440447314827,14.69215361548884],[121.050320562905227,14.692281450320642],[121.050282804036044,14.692243099878953]]]}},
{"type":"Feature","properties":{"fid":20,"lot_id":"LOT-020"},"geometry":{"type":"Polygon","coordinates":[[[121.050322979361795,14.692280836374371],[121.050441480392166,14.69215682545626],[121.050479594758642,14.692193023245043],[121.050360400739763,14.692317704471591],[121.050322979361795,14.692280836374371]]]}},
{"type":"Feature","properties":{"fid":21,"lot_id":"LOT-021"},"geometry":{"type":"Polygon","coordinates":[[[121.050354856831916,14.692325078090292],[121.050480287747135,14.692195034233132],[121.050517016136666,14.692227210040043],[121.050391585221476,14.692359935193487],[121.050354856831916,14.692325078090292]]]}},
{"type":"Feature","properties":{"fid":22,"lot_id":"LOT-022"},"geometry":{"type":"Polygon","coordinates":[[[121.050392278209941,14.692361946180041],[121.050517709125103,14.692228550698561],[121.050550279583774,14.692258715513058],[121.050422769703133,14.692388759332314],[121.050392278209941,14.692361946180041]]]}},
{"type":"Feature","properties":{"fid":23,"lot_id":"LOT-023"},"geometry":{"type":"Polygon","coordinates":[[[121.050428313610993,14.692386748346012],[121.050549586595281,14.692260726500542],[121.050575227169119,14.69228418801983],[121.050457419127241,14.692412220837859],[121.050428313610993,14.692386748346012]]]}},
{"type":"Feature","properties":{"fid":24,"lot_id":"LOT-024"},"geometry":{"type":"Polygon","coordinates":[[[121.050490682574363,14.692041528755755],[121.050584929007883,14.691939638597699],[121.050641754063378,14.691987902362703],[121.050548200618351,14.692091133157618],[121.050490682574363,14.692041528755755]]]}},
{"type":"Feature","properties":{"fid":25,"lot_id":"LOT-025"},"geometry":{"type":"Polygon","coordinates":[[[121.050386552853709,14.69249052414915],[121.050589286448272,14.692268137592357],[121.050617501948494,14.692291387106616],[121.050413723335467,14.692513773639739],[121.050386552853709,14.69249052414915]]]}},
{"type":"Feature","properties":{"fid":26,"lot_id":"LOT-026"},"geometry":{"type":"Polygon","coordinates":[[[121.050415813372553,14.692514784487107],[121.050618546967058,14.692292397955006],[121.050647807485845,14.692315647466682],[121.050448208946889,14.692539044822372],[121.050415813372553,14.692514784487107]]]}},
{"type":"Feature","properties":{"fid":27,"lot_id":"LOT-027"},"geometry":{"type":"Polygon","coordinates":[[[121.050451344002482,14.692541066516853],[121.050647807485845,14.692318680011503],[121.050680203060239,14.692344962064833],[121.050479559502762,14.69256431600207],[121.050451344002482,14.692541066516853]]]}},
{"type":"Feature","properties":{"fid":28,"lot_id":"LOT-028"},"geometry":{"type":"Polygon","coordinates":[[[121.050550519302718,14.692092637578632],[121.050642402124723,14.691989989137138],[121.050677990541701,14.692020658493613],[121.050584166533326,14.692120177396195],[121.050550519302718,14.692092637578632]]]}},
{"type":"Feature","properties":{"fid":29,"lot_id":"LOT-029"},"geometry":{"type":"Polygon","coordinates":[[[121.050498754332594,14.692546418220873],[121.050681872914453,14.692346128950129],[121.050754990934763,14.69238368320238],[121.050595166589446,14.692607130869808],[121.050498754332594,14.692546418220873]]]}},
{"type":"Feature","properties":{"fid":30,"lot_id":"LOT-030"},"geometry":{"type":"Polygon","coordinates":[[[121.050584813595449,14.692120803301098],[121.050677990541701,14.692023788019538],[121.050710990710144,14.692051327845776],[121.050615872577509,14.6921483431151],[121.050584813595449,14.692120803301098]]]}},
{"type":"Feature","properties":{"fid":31,"lot_id":"LOT-031"},"geometry":{"type":"Polygon","coordinates":[[[121.050617813763921,14.692148969019922],[121.050711637772295,14.692052579655975],[121.050742696754369,14.692078241763518],[121.050649519808118,14.692177134735134],[121.050617813763921,14.692148969019922]]]}},
{"type":"Feature","properties":{"fid":32,"lot_id":"LOT-032"},"geometry":{"type":"Polygon","coordinates":[[[121.050650813932364,14.692178386544617],[121.050742696754369,14.692081371288626],[121.050772461612198,14.692108911107605],[121.050681872914453,14.692206552256026],[121.050650813932364,14.692178386544617]]]}},
{"type":"Feature","properties":{"fid":33,"lot_id":"LOT-033"},"geometry":{"type":"Polygon","coordinates":[[[121.050792520538124,14.692580842920789],[121.050826167768719,14.692401208517886],[121.050912227031574,14.692414352503587],[121.050881815111609,14.692593360992143],[121.050792520538124,14.692580842920789]]]}},
{"type":"Feature","properties":{"fid":34,"lot_id":"LOT-034"},"geometry":{"type":"Polygon","coordinates":[[[121.050684245828876,14.692205928011008],[121.050770607779413,14.692114324133037],[121.05080872615757,14.692150620013804],[121.050728320203618,14.692245104500552],[121.050684245828876,14.692205928011008]]]}},
{"type":"Feature","properties":{"fid":35,"lot_id":"LOT-035"},"geometry":{"type":"Polygon","coordinates":[[[121.050957480371608,14.692608180935508],[121.050989196500154,14.692426107507126],[121.051037460174001,14.692434777673826],[121.051008501969662,14.69261618415965],[121.050957480371608,14.692608180935508]]]}},
{"type":"Feature","properties":{"fid":36,"lot_id":"LOT-036"},"geometry":{"type":"Polygon","coordinates":[[[121.050919558913577,14.692599510775699],[121.050919558913577,14.692599510775699],[121.050947827636818,14.692420105083828],[121.050988507019099,14.692425440571215],[121.050956101409511,14.692606180129431],[121.050919558913577,14.692599510775699]]]}},
{"type":"Feature","properties":{"fid":37,"lot_id":"LOT-037"},"geometry":{"type":"Polygon","coordinates":[[[121.050883016417643,14.692594175292557],[121.050913353584093,14.692416103468208],[121.050946448674736,14.692419438147901],[121.050920248394632,14.692599510775699],[121.050883016417643,14.692594175292557]]]}},
{"type":"Feature","properties":{"fid":38,"lot_id":"LOT-038"},"geometry":{"type":"Polygon","coordinates":[[[121.050730361246949,14.692245402007375],[121.050810171601256,14.692152069770842],[121.050840547183867,14.692175114771224],[121.050866157969153,14.692183756645738],[121.05083756918556,14.692311080224004],[121.050780987217976,14.692285730739229],[121.050730361246949,14.692245402007375]]]}},
{"type":"Feature","properties":{"fid":39,"lot_id":"LOT-039"},"geometry":{"type":"Polygon","coordinates":[[[121.051009098794822,14.692616399881327],[121.051037593223683,14.692440687765707],[121.051125451045905,14.692456766004378],[121.051095769349189,14.692625587439041],[121.051009098794822,14.692616399881327]]]}},
{"type":"Feature","properties":{"fid":40,"lot_id":"LOT-040"},"geometry":{"type":"Polygon","coordinates":[[[121.050870188454283,14.692314358706387],[121.05089512107952,14.692192623361949],[121.05096754441945,14.692207553171988],[121.050947360865692,14.692330436954357],[121.050870188454283,14.692314358706387]]]}},
{"type":"Feature","properties":{"fid":41,"lot_id":"LOT-041"},"geometry":{"type":"Polygon","coordinates":[[[121.051105267492147,14.692645110997898],[121.051132574653124,14.692483180251061],[121.051232305154031,14.692498110041255],[121.051203810725198,14.692661189221528],[121.051105267492147,14.692645110997898]]]}},
{"type":"Feature","properties":{"fid":42,"lot_id":"LOT-042"},"geometry":{"type":"Polygon","coordinates":[[[121.050949735401431,14.692330436954357],[121.05096754441945,14.692202959384394],[121.051045904098757,14.692213295406352],[121.051025720544999,14.692341921416471],[121.050949735401431,14.692330436954357]]]}},
{"type":"Feature","properties":{"fid":43,"lot_id":"LOT-043"},"geometry":{"type":"Polygon","coordinates":[[[121.051210934332417,14.692677267443981],[121.051242990564845,14.692502703822653],[121.05134747013723,14.692519930502007],[121.051317788440542,14.69269104877657],[121.051210934332417,14.692677267443981]]]}},
{"type":"Feature","properties":{"fid":44,"lot_id":"LOT-044"},"geometry":{"type":"Polygon","coordinates":[[[121.051025720544999,14.692341921416471],[121.051051840438092,14.692199514043635],[121.051117140170831,14.692208701618874],[121.051094582081348,14.69235685121631],[121.051025720544999,14.692341921416471]]]}},
{"type":"Feature","properties":{"fid":45,"lot_id":"LOT-045"},"geometry":{"type":"Polygon","coordinates":[[[121.051332035654937,14.69264281410871],[121.05135103194084,14.692523375837716],[121.051446013370281,14.692539454070308],[121.051427017084407,14.692658892332512],[121.051332035654937,14.69264281410871]]]}},
{"type":"Feature","properties":{"fid":46,"lot_id":"LOT-046"},"geometry":{"type":"Polygon","coordinates":[[[121.051423455280784,14.692696790998221],[121.051447200638165,14.692557829191818],[121.051559991085597,14.692575055866834],[121.051536245728244,14.692714017662281],[121.051423455280784,14.692696790998221]]]}},
{"type":"Feature","properties":{"fid":47,"lot_id":"LOT-047"},"geometry":{"type":"Polygon","coordinates":[[[121.051207372528793,14.692377523245181],[121.051232305154031,14.692223631427815],[121.051295230351045,14.69223281900204],[121.051272672261547,14.692387859258879],[121.051207372528793,14.692377523245181]]]}},
{"type":"Feature","properties":{"fid":48,"lot_id":"LOT-048"},"geometry":{"type":"Polygon","coordinates":[[[121.051561178353481,14.692665782999498],[121.051575425567904,14.692578501201668],[121.051656159782937,14.692589985650745],[121.051637163497062,14.692678415888388],[121.051561178353481,14.692665782999498]]]}},
{"type":"Feature","properties":{"fid":49,"lot_id":"LOT-049\n"},"geometry":{"type":"Polygon","coordinates":[[[121.051272672261547,14.692386710812933],[121.0512964176189,14.692233967448797],[121.051354593744463,14.692243155022586],[121.051333222922821,14.692395898380306],[121.051272672261547,14.692386710812933]]]}},
{"type":"Feature","properties":{"fid":50,"lot_id":"LOT-050"},"geometry":{"type":"Polygon","coordinates":[[[121.051333222922821,14.692397046826205],[121.05135578101229,14.692243155022586],[121.051422268012928,14.692254639489287],[121.051400897191286,14.692407382838978],[121.051333222922821,14.692397046826205]]]}},
{"type":"Feature","properties":{"fid":52,"lot_id":"LOT-052"},"geometry":{"type":"Polygon","coordinates":[[[121.051408020798505,14.692400492163841],[121.051429391620118,14.692263827062213],[121.051487567745681,14.692273014634749],[121.05146144785256,14.692406234393136],[121.051408020798505,14.692400492163841]]]}},
{"type":"Feature","properties":{"fid":53,"lot_id":"LOT-053"},"geometry":{"type":"Polygon","coordinates":[[[121.051765388426801,14.692723205215891],[121.051799819194969,14.692560126081899],[121.05189836242802,14.692580798091539],[121.051865118927708,14.692742728766026],[121.051765388426801,14.692723205215891]]]}},
{"type":"Feature","properties":{"fid":54,"lot_id":"LOT-054"},"geometry":{"type":"Polygon","coordinates":[[[121.05146144785256,14.692403937501441],[121.051487567745681,14.692271866188204],[121.05155642928203,14.692283350653392],[121.051532683924648,14.692415421959689],[121.051465009656184,14.692406234393136],[121.05146144785256,14.692403937501441]]]}},
{"type":"Feature","properties":{"fid":55,"lot_id":"LOT-055"},"geometry":{"type":"Polygon","coordinates":[[[121.051865118927708,14.692751916318425],[121.05189598789228,14.692585391871187],[121.0520170892148,14.692607212323225],[121.051980283910908,14.692776033641652],[121.051865118927708,14.692751916318425]]]}},
{"type":"Feature","properties":{"fid":56,"lot_id":"LOT-056"},"geometry":{"type":"Polygon","coordinates":[[[121.051531496656793,14.692433797091631],[121.051558803817713,14.692279905313905],[121.051711961372717,14.69230517113559],[121.051684654211769,14.692456766004378],[121.051531496656793,14.692433797091631]]]}},
{"type":"Feature","properties":{"fid":57,"lot_id":"LOT-057"},"geometry":{"type":"Polygon","coordinates":[[[121.052051519982996,14.692778330529428],[121.052083576215438,14.692640517219495],[121.052021838286279,14.69262903277308],[121.051996905661071,14.69276914297814],[121.052051519982996,14.692778330529428]]]}},
{"type":"Feature","properties":{"fid":58,"lot_id":"LOT-058"},"geometry":{"type":"Polygon","coordinates":[[[121.052052707250837,14.692778330529428],[121.052085950751149,14.692640517219495],[121.052160748626861,14.692654298554404],[121.052131066930144,14.692793260299457],[121.052052707250837,14.692778330529428]]]}},
{"type":"Feature","properties":{"fid":59,"lot_id":"LOT-059"},"geometry":{"type":"Polygon","coordinates":[[[121.052141752340972,14.692780627417195],[121.052158374091121,14.692695642553904],[121.052230797431079,14.692707126996815],[121.052211801145177,14.692794408743262],[121.052141752340972,14.692780627417195]]]}},
{"type":"Feature","properties":{"fid":60,"lot_id":"LOT-060"},"geometry":{"type":"Polygon","coordinates":[[[121.051958913089294,14.692525672728159],[121.052000467464666,14.692329288508109],[121.05211207064427,14.692353405877977],[121.052069329001014,14.692549790076345],[121.051958913089294,14.692525672728159]]]}},
{"type":"Feature","properties":{"fid":61,"lot_id":"LOT-061"},"geometry":{"type":"Polygon","coordinates":[[[121.052227235627456,14.69280474473724],[121.052252168252693,14.692705978552551],[121.05234952421786,14.692727798992548],[121.052319842521158,14.692830010498245],[121.052227235627456,14.69280474473724]]]}},
{"type":"Feature","properties":{"fid":63,"lot_id":"LOT-062"},"geometry":{"type":"Polygon","coordinates":[[[121.052340026074944,14.692844940264738],[121.052369707771632,14.692726650548394],[121.052489621826325,14.692748470986324],[121.052463501933204,14.692870206021102],[121.052340026074944,14.692844940264738]]]}},
{"type":"Feature","properties":{"fid":64,"lot_id":"LOT-063"},"geometry":{"type":"Polygon","coordinates":[[[121.050636689351606,14.691498828809419],[121.050670860295241,14.69146375137033],[121.050779649421784,14.691563587143717],[121.050744781112002,14.691598664566786],[121.050636689351606,14.691498828809419]]]}},
{"type":"Feature","properties":{"fid":65,"lot_id":"LOT-064"},"geometry":{"type":"Polygon","coordinates":[[[121.050608097337602,14.69152850971502],[121.050635991985402,14.691499503375503],[121.050635991985402,14.691499503375503],[121.050744083745798,14.691597990001007],[121.050713399633182,14.691629694590189],[121.050608097337602,14.69152850971502]]]}},
{"type":"Feature","properties":{"fid":66,"lot_id":"LOT-065"},"geometry":{"type":"Polygon","coordinates":[[[121.05072595222471,14.69170659506398],[121.050805451971044,14.691622948933301],[121.050840320280827,14.691653978953255],[121.050756636337326,14.691734926810664],[121.05072595222471,14.69170659506398]]]}},
{"type":"Feature","properties":{"fid":67,"lot_id":"LOT-066"},"geometry":{"type":"Polygon","coordinates":[[[121.050586478985537,14.691551444957501],[121.050608097337602,14.691529184281013],[121.050608097337602,14.691529184281013],[121.050713399633182,14.691629694590189],[121.050692478647306,14.691653304387657],[121.050586478985537,14.691551444957501]]]}},
{"type":"Feature","properties":{"fid":68,"lot_id":"LOT-067"},"geometry":{"type":"Polygon","coordinates":[[[121.050526659931549,14.691629065494178],[121.050549996514405,14.691604375629785],[121.050649176991655,14.691692553704073],[121.050625111140548,14.691715127285368],[121.050526659931549,14.691629065494178]]]}},
{"type":"Feature","properties":{"fid":69,"lot_id":"LOT-068"},"geometry":{"type":"Polygon","coordinates":[[[121.05050551115329,14.691653049931192],[121.050525930663341,14.691631181768129],[121.050624381872353,14.691715832709745],[121.050601774557691,14.691738406288636],[121.05050551115329,14.691653049931192]]]}},
{"type":"Feature","properties":{"fid":70,"lot_id":"LOT-069"},"geometry":{"type":"Polygon","coordinates":[[[121.050482903838656,14.691675623516563],[121.050504052616887,14.691653755355766],[121.050601045289483,14.691739111712936],[121.050577708706584,14.691763096137874],[121.050482903838656,14.691675623516563]]]}},
{"type":"Feature","properties":{"fid":77,"lot_id":"LOT-070"},"geometry":{"type":"Polygon","coordinates":[[[121.05043870969277,14.691718369101359],[121.050479056014851,14.691676740109964],[121.050576783772698,14.691764334436819],[121.05054002379039,14.691802494330606],[121.05043870969277,14.691718369101359]]]}},
{"type":"Feature","properties":{"fid":78,"lot_id":"LOT-071"},"geometry":{"type":"Polygon","coordinates":[[[121.050858140942708,14.691667878418324],[121.050807561104207,14.691621670418106],[121.050827933539139,14.691601964062096],[121.05087500088888,14.691649531125297],[121.050858140942708,14.691667878418324]]]}},
{"type":"Feature","properties":{"fid":79,"lot_id":"LOT-072"},"geometry":{"type":"Polygon","coordinates":[[[121.050827231041353,14.691602643591644],[121.050846900978556,14.6915815781747],[121.050897480817085,14.69162438853604],[121.05087500088888,14.691648172066486],[121.050827231041353,14.691602643591644]]]}},
{"type":"Feature","properties":{"fid":80,"lot_id":"LOT-073"},"geometry":{"type":"Polygon","coordinates":[[[121.050757398873429,14.691734990537956],[121.050841147774079,14.69165397984721],[121.050860881710463,14.691672602997164],[121.050778095440833,14.691755010416674],[121.050757398873429,14.691734990537956]]]}},
{"type":"Feature","properties":{"fid":81,"lot_id":"LOT-074"},"geometry":{"type":"Polygon","coordinates":[[[121.050780020702916,14.691756407152337],[121.050860400394953,14.691674465312079],[121.050888316695151,14.691697744247087],[121.050808418318681,14.691781082814115],[121.050780020702916,14.691756407152337]]]}},
{"type":"Feature","properties":{"fid":82,"lot_id":"LOT-075"},"geometry":{"type":"Polygon","coordinates":[[[121.05080986226524,14.691783410706591],[121.050903237476334,14.691687035937294],[121.050960995338869,14.691740111902456],[121.050866176181188,14.691837417805107],[121.05080986226524,14.691783410706591]]]}},
{"type":"Feature","properties":{"fid":83,"lot_id":"LOT-076"},"geometry":{"type":"Polygon","coordinates":[[[121.050397076368753,14.691763976430154],[121.050437060994312,14.69171999048009],[121.050538198576646,14.691802653723757],[121.050490373828382,14.691851189925652],[121.050397076368753,14.691763976430154]]]}},
{"type":"Feature","properties":{"fid":84,"lot_id":"LOT-077"},"geometry":{"type":"Polygon","coordinates":[[[121.04963464475658,14.691902246138699],[121.049737747354555,14.691797821351052],[121.049737747354555,14.691797821351052],[121.049823868348099,14.691874086650317],[121.04972076575018,14.691977338089993],[121.04963464475658,14.691902246138699]]]}},
{"type":"Feature","properties":{"fid":85,"lot_id":"LOT-078"},"geometry":{"type":"Polygon","coordinates":[[[121.049721978721905,14.691977338089993],[121.049823868348099,14.691877606586566],[121.049901498539541,14.691944485364472],[121.049798395941565,14.692048910082033],[121.049721978721905,14.691977338089993]]]}},
{"type":"Feature","properties":{"fid":86,"lot_id":"LOT-079"},"geometry":{"type":"Polygon","coordinates":[[[121.049794757026362,14.692053603326595],[121.049911202313439,14.691935098870564],[121.049997323307068,14.692009017499196],[121.04988087801992,14.69212986853659],[121.049794757026362,14.692053603326595]]]}},
{"type":"Feature","properties":{"fid":87,"lot_id":"LOT-080"},"geometry":{"type":"Polygon","coordinates":[[[121.049882340002554,14.692128501883753],[121.050008934540855,14.691999984479214],[121.0500540573466,14.692035144908719],[121.0500540573466,14.692035144908719],[121.049926209397015,14.692164874720373],[121.049882340002554,14.692128501883753]]]}},
{"type":"Feature","properties":{"fid":88,"lot_id":"LOT-081"},"geometry":{"type":"Polygon","coordinates":[[[121.049927462808284,14.692166087148154],[121.050052803935344,14.692036357337226],[121.050052803935344,14.692036357337226],[121.050097926741074,14.692073942617473],[121.049970078791489,14.692207309688776],[121.049927462808284,14.692166087148154]]]}},
{"type":"Feature","properties":{"fid":89,"lot_id":"LOT-082"},"geometry":{"type":"Polygon","coordinates":[[[121.049970078791489,14.692209734543855],[121.050096673329804,14.69207515504576],[121.050188172352591,14.692152750442171],[121.050057817580409,14.692283692611129],[121.049970078791489,14.692209734543855]]]}},
{"type":"Feature","properties":{"fid":90,"lot_id":"LOT-083"},"geometry":{"type":"Polygon","coordinates":[[[121.050080044821001,14.692265028475068],[121.050183292406899,14.692160814610386],[121.050255116814483,14.692227033842665],[121.050146257946736,14.692330162115249],[121.050080044821001,14.692265028475068]]]}},
{"type":"Feature","properties":{"fid":91,"lot_id":"LOT-084"},"geometry":{"type":"Polygon","coordinates":[[[121.050188903688749,14.692466942696447],[121.050243894250798,14.692434375899168],[121.050349386349438,14.692330162115249],[121.050426822038887,14.692405065777461],[121.050322452196582,14.692503851727491],[121.050239405225341,14.692548359668413],[121.050188903688749,14.692466942696447]]]}},
{"type":"Feature","properties":{"fid":92,"lot_id":"LOT-085"},"geometry":{"type":"Polygon","coordinates":[[[121.05025884347674,14.692627065644459],[121.05045068698999,14.692596031700146],[121.050460508330261,14.692689766865429],[121.050390449436335,14.692699900394407],[121.050396996996511,14.692767668357341],[121.050281759937377,14.692780968609281],[121.05025884347674,14.692627065644459]]]}},
{"type":"Feature","properties":{"fid":93,"lot_id":"LOT-086"},"geometry":{"type":"Polygon","coordinates":[[[121.050280648273642,14.692937702520933],[121.050282039834414,14.692889917550721],[121.050430241053959,14.69288857149507],[121.050428849493173,14.692937029493258],[121.050280648273642,14.692937702520933]]]}},
{"type":"Feature","properties":{"fid":94,"lot_id":"LOT-087"},"geometry":{"type":"Polygon","coordinates":[[[121.050280648273642,14.692887225439414],[121.050281344054,14.692809154197018],[121.050430241053959,14.692807135112794],[121.050429545273573,14.692887898467248],[121.050280648273642,14.692887225439414]]]}},
{"type":"Feature","properties":{"fid":95,"lot_id":"LOT-088"},"geometry":{"type":"Polygon","coordinates":[[[121.050541812058157,14.691890132112755],[121.050642955262092,14.691789909649799],[121.050676669663375,14.691814567561618],[121.05057634876195,14.69191956250982],[121.050541812058157,14.691890132112755]]]}},
{"type":"Feature","properties":{"fid":96,"lot_id":"LOT-089"},"geometry":{"type":"Polygon","coordinates":[[[121.050582104879254,14.691917971677642],[121.050668446638667,14.691826498808272],[121.05070791715724,14.691861497128032],[121.050621575397855,14.691953765398711],[121.050582104879254,14.691917971677642]]]}},
{"type":"Feature","properties":{"fid":97,"lot_id":"LOT-090"},"geometry":{"type":"Polygon","coordinates":[[[121.050626509212663,14.691952969982751],[121.050708739459708,14.691863087960614],[121.050708739459708,14.691863087960614],[121.050740809256084,14.691889336696562],[121.050659401311506,14.691976832460295],[121.050626509212663,14.691952969982751]]]}},
{"type":"Feature","properties":{"fid":98,"lot_id":"LOT-091"},"geometry":{"type":"Polygon","coordinates":[[[121.050660223613974,14.691981604955492],[121.050741631558552,14.691894904609846],[121.050741631558552,14.691894904609846],[121.050786858194442,14.691937857078964],[121.050700516435029,14.692022171160454],[121.050660223613974,14.691981604955492]]]}},
{"type":"Feature","properties":{"fid":99,"lot_id":"LOT-093"},"geometry":{"type":"Polygon","coordinates":[[[121.050266949320573,14.69105194880572],[121.050350524952975,14.691130844084778],[121.050439135261996,14.691040260613804],[121.05032635850506,14.69093506685846],[121.050279032544566,14.690988637758711],[121.050306219798486,14.691009092098978],[121.050266949320573,14.69105194880572]]]}},
{"type":"Feature","properties":{"fid":100,"lot_id":"LOT-094"},"geometry":{"type":"Polygon","coordinates":[[[121.050134033857077,14.691107467708761],[121.050216602554116,14.691024676356951],[121.050360594306255,14.691156168489302],[121.050279032544566,14.691239933806433],[121.050134033857077,14.691107467708761]]]}},
{"type":"Feature","properties":{"fid":101,"lot_id":"LOT-095"},"geometry":{"type":"Polygon","coordinates":[[[121.050113895150488,14.69121460941162],[121.05017733207626,14.691151298411734],[121.050278025609217,14.691239933806433],[121.050213581748139,14.691306166825157],[121.050113895150488,14.69121460941162]]]}},
{"type":"Feature","properties":{"fid":102,"lot_id":"LOT-096"},"geometry":{"type":"Polygon","coordinates":[[[121.050007160005535,14.69125162198767],[121.050074624672632,14.691179544860105],[121.050219623360064,14.691308114854817],[121.050148130951712,14.691384087997958],[121.050007160005535,14.69125162198767]]]}},
{"type":"Feature","properties":{"fid":103,"lot_id":"LOT-097"},"geometry":{"type":"Polygon","coordinates":[[[121.049968122825874,14.69129061482149],[121.050006390886452,14.69125227584799],[121.050146479322663,14.691383157143596],[121.05010889462028,14.691420174061468],[121.049968122825874,14.69129061482149]]]}},
{"type":"Feature","properties":{"fid":104,"lot_id":"LOT-098"},"geometry":{"type":"Polygon","coordinates":[[[121.049933954914636,14.691328292771647],[121.049968122825874,14.691292597871659],[121.050107527903819,14.691421496094135],[121.050076776783683,14.691452563859459],[121.049933954914636,14.691328292771647]]]}},
{"type":"Feature","properties":{"fid":105,"lot_id":"LOT-099"},"geometry":{"type":"Polygon","coordinates":[[[121.04990935401851,14.691350106318774],[121.049933271556384,14.69132961480487],[121.050075410067222,14.691453224875696],[121.050052175887572,14.691478343491166],[121.04990935401851,14.691350106318774]]]}},
{"type":"Feature","properties":{"fid":106,"lot_id":"LOT-100"},"geometry":{"type":"Polygon","coordinates":[[[121.049839104672742,14.691420736231427],[121.049907604778411,14.691349776345124],[121.049940640290387,14.691379382128309],[121.049870682735644,14.691450342004991],[121.049839104672742,14.691420736231427]]]}},
{"type":"Feature","properties":{"fid":107,"lot_id":"LOT-101"},"geometry":{"type":"Polygon","coordinates":[[[121.04974914396719,14.691581840996582],[121.049859073469747,14.691678893089579],[121.0499236352411,14.691613066457291],[121.049815450651266,14.691513482539984],[121.04974914396719,14.691581840996582]]]}},
{"type":"Feature","properties":{"fid":108,"lot_id":"LOT-102"},"geometry":{"type":"Polygon","coordinates":[[[121.049704648692341,14.691629101151596],[121.049748271510822,14.691584372790858],[121.049858201013393,14.691678893089579],[121.049770955376403,14.691769193693931],[121.049722097819739,14.69173206073965],[121.049767465550957,14.691681424882729],[121.049704648692341,14.691629101151596]]]}},
{"type":"Feature","properties":{"fid":109,"lot_id":"LOT-103"},"geometry":{"type":"Polygon","coordinates":[[[121.049535392156656,14.691797887336092],[121.049645321659213,14.691677205227467],[121.049755251161756,14.691774257278116],[121.049640959377356,14.691889875751766],[121.049535392156656,14.691797887336092]]]}},
{"type":"Feature","properties":{"fid":111,"lot_id":"LOT-105"},"geometry":{"type":"Polygon","coordinates":[[[121.050066453411404,14.691485001601183],[121.050148962031912,14.691401865086769],[121.050288539114959,14.691520251473744],[121.050199842347922,14.691608708676078],[121.050066453411404,14.691485001601183]]]}},
{"type":"Feature","properties":{"fid":113,"lot_id":"LOT-110"},"geometry":{"type":"Polygon","coordinates":[[[121.050251650372488,14.691346570400565],[121.050335152558432,14.691421674336221],[121.050365184046399,14.691392624703791],[121.050280216909798,14.691316103702325],[121.050251650372488,14.691346570400565]]]}},
{"type":"Feature","properties":{"fid":114,"lot_id":"LOT-111"},"geometry":{"type":"Polygon","coordinates":[[[121.05028168186044,14.691316103702325],[121.05031830562622,14.691277843191541],[121.050402540287479,14.691352947150824],[121.050365916521727,14.691389790593108],[121.05028168186044,14.691316103702325]]]}},
{"type":"Feature","properties":{"fid":115,"lot_id":"LOT-107"},"geometry":{"type":"Polygon","coordinates":[[[121.050265230201248,14.691639878238028],[121.05029770013067,14.691606328441722],[121.050428317801135,14.691726251094179],[121.050397323777602,14.691761942347084],[121.050265230201248,14.691639878238028]]]}},
{"type":"Feature","properties":{"fid":116,"lot_id":"LOT-112"},"geometry":{"type":"Polygon","coordinates":[[[121.05033415282432,14.691568989364031],[121.05037645113525,14.691526754138152],[121.050510168376135,14.69164290098967],[121.050469234526901,14.691681176643121],[121.05033415282432,14.691568989364031]]]}},
{"type":"Feature","properties":{"fid":117,"lot_id":"LOT-113"},"geometry":{"type":"Polygon","coordinates":[[[121.050292404976148,14.691246134318039],[121.050371594348107,14.691170730791091],[121.050517599752595,14.691298797083329],[121.050439647714626,14.691377791207477],[121.050292404976148,14.691246134318039]]]}},
{"type":"Feature","properties":{"fid":118,"lot_id":"LOT-114"},"geometry":{"type":"Polygon","coordinates":[[[121.050377057828527,14.6915264166967],[121.050418490608422,14.691484620911478],[121.050547524122919,14.69160142007204],[121.050509642724151,14.691641498200974],[121.050377057828527,14.6915264166967]]]}},
{"type":"Feature","properties":{"fid":119,"lot_id":"LOT-115"},"geometry":{"type":"Polygon","coordinates":[[[121.050381172799675,14.691158693440165],[121.050432743090653,14.69110147320826],[121.050519199166658,14.691180701217672],[121.050464595329132,14.691234987059385],[121.050381172799675,14.691158693440165]]]}},
{"type":"Feature","properties":{"fid":120,"lot_id":"LOT-117"},"geometry":{"type":"Polygon","coordinates":[[[121.050469145648975,14.691446261558236],[121.050510098527056,14.691400778870877],[121.050625373295034,14.691506416065694],[121.050585937190235,14.69154309563528],[121.050469145648975,14.691446261558236]]]}},
{"type":"Feature","properties":{"fid":121,"lot_id":"LOT-118"},"geometry":{"type":"Polygon","coordinates":[[[121.050464595329132,14.691085334165789],[121.050538917219029,14.691006106121803],[121.050628406841611,14.691082399794297],[121.050551051405179,14.691164562181044],[121.050464595329132,14.691085334165789]]]}},
{"type":"Feature","properties":{"fid":122,"lot_id":"LOT-120"},"geometry":{"type":"Polygon","coordinates":[[[121.050513896408901,14.691400755173703],[121.050560898182312,14.691352716583504],[121.050675298725068,14.691459087733325],[121.050626523299869,14.691503694974299],[121.050513896408901,14.691400755173703]]]}},
{"type":"Feature","properties":{"fid":123,"lot_id":"LOT-121"},"geometry":{"type":"Polygon","coordinates":[[[121.050708804764938,14.691196129740863],[121.050825415037707,14.691075312997315],[121.050900576161368,14.691142136425677],[121.050782860577982,14.691261349371121],[121.050708804764938,14.691196129740863]]]}},
{"type":"Feature","properties":{"fid":124,"lot_id":"LOT-122"},"geometry":{"type":"Polygon","coordinates":[[[121.050700359413639,14.691399544105552],[121.050644059073946,14.691348715095831],[121.050699733854302,14.691292440106992],[121.05065531914191,14.691256133654885],[121.050561485242454,14.691351740632449],[121.050660949175878,14.691442506711686],[121.050700359413639,14.691399544105552]]]}},
{"type":"Feature","properties":{"fid":125,"lot_id":"LOT-123"},"geometry":{"type":"Polygon","coordinates":[[[121.050784809923158,14.691261579623085],[121.050902415077104,14.691142978507143],[121.050948080908185,14.691185336055938],[121.050833603550871,14.691305147363797],[121.050784809923158,14.691261579623085]]]}},
{"type":"Feature","properties":{"fid":126,"lot_id":"LOT-124"},"geometry":{"type":"Polygon","coordinates":[[[121.050834854669503,14.691305147363797],[121.050949332026846,14.691186546271497],[121.050995623417251,14.691227088488858],[121.05088177161926,14.691346294666495],[121.050834854669503,14.691305147363797]]]}},
{"type":"Feature","properties":{"fid":127,"lot_id":"LOT-125"},"geometry":{"type":"Polygon","coordinates":[[[121.050645310192635,14.691348715095831],[121.050700359413639,14.691293045214472],[121.050728509583465,14.691317249512453],[121.050673460362461,14.69137412960216],[121.050645310192635,14.691348715095831]]]}},
{"type":"Feature","properties":{"fid":128,"lot_id":"LOT-127"},"geometry":{"type":"Polygon","coordinates":[[[121.050883022737864,14.691347504881165],[121.050993746739238,14.691228903811858],[121.051020645790445,14.691249477471349],[121.050905542873778,14.691364447885814],[121.050883022737864,14.691347504881165]]]}},
{"type":"Feature","properties":{"fid":129,"lot_id":"LOT-128"},"geometry":{"type":"Polygon","coordinates":[[[121.050904917314455,14.691366868314939],[121.051022522468386,14.691252503009348],[121.051055677112885,14.691280943064477],[121.050938071958896,14.691396518569585],[121.050904917314455,14.691366868314939]]]}},
{"type":"Feature","properties":{"fid":130,"lot_id":"LOT-129"},"geometry":{"type":"Polygon","coordinates":[[[121.050939948636923,14.69139772878397],[121.05105692823156,14.691282758387018],[121.051085703960737,14.691306357578695],[121.050969975484733,14.691424353498853],[121.050939948636923,14.69139772878397]]]}},
{"type":"Feature","properties":{"fid":131,"lot_id":"LOT-130"},"geometry":{"type":"Polygon","coordinates":[[[121.050675337040445,14.691375339816677],[121.050728509583465,14.691319669942109],[121.050757910871965,14.691343874237136],[121.05070223609161,14.691399544105552],[121.050675337040445,14.691375339816677]]]}},
{"type":"Feature","properties":{"fid":132,"lot_id":"LOT-131"},"geometry":{"type":"Polygon","coordinates":[[[121.050963949489713,14.691435869966586],[121.051065585185768,14.691331230095862],[121.051137032061206,14.691395474115454],[121.05103338377711,14.691501574045864],[121.050963949489713,14.691435869966586]]]}},
{"type":"Feature","properties":{"fid":133,"lot_id":"LOT-133"},"geometry":{"type":"Polygon","coordinates":[[[121.050670111635768,14.691450470874802],[121.05076420012665,14.691350211285437],[121.050823571473842,14.691401314479931],[121.050730489277001,14.691503520833097],[121.050670111635768,14.691450470874802]]]}},
{"type":"Feature","properties":{"fid":134,"lot_id":"LOT-134"},"geometry":{"type":"Polygon","coordinates":[[[121.051035899512158,14.691502547439482],[121.051138038355191,14.691398394297718],[121.051209485230657,14.691462151600671],[121.051106340093583,14.691569224892032],[121.051035899512158,14.691502547439482]]]}},
{"type":"Feature","properties":{"fid":135,"lot_id":"LOT-135"},"geometry":{"type":"Polygon","coordinates":[[[121.050727973541939,14.691506927710712],[121.050823571473842,14.691402287873997],[121.05087791135098,14.691449984177883],[121.050783319713062,14.691553650598363],[121.050727973541939,14.691506927710712]]]}},
{"type":"Feature","properties":{"fid":136,"lot_id":"LOT-136"},"geometry":{"type":"Polygon","coordinates":[[[121.051134011669689,14.691559423186106],[121.051201576514401,14.69148561616943],[121.05127380100356,14.691550408589984],[121.051202741425513,14.691620835112275],[121.051134011669689,14.691559423186106]]]}},
{"type":"Feature","properties":{"fid":137,"lot_id":"LOT-137"},"geometry":{"type":"Polygon","coordinates":[[[121.050847443535332,14.691581959674778],[121.050926657491175,14.691498574655075],[121.050952285535715,14.691518857500633],[121.050875401402081,14.691603369336869],[121.050847443535332,14.691581959674778]]]}},
{"type":"Feature","properties":{"fid":138,"lot_id":"LOT-138"},"geometry":{"type":"Polygon","coordinates":[[[121.050876566313235,14.691602805924731],[121.050952285535715,14.691518857500633],[121.050975583758031,14.691539140344309],[121.05089811716887,14.691621398524367],[121.050876566313235,14.691602805924731]]]}},
{"type":"Feature","properties":{"fid":139,"lot_id":"LOT-139"},"geometry":{"type":"Polygon","coordinates":[[[121.051189927403229,14.691652949598913],[121.051260404525706,14.691576325552823],[121.051332629014837,14.691639991122418],[121.051258657159025,14.691717741969857],[121.051189927403229,14.691652949598913]]]}},
{"type":"Feature","properties":{"fid":140,"lot_id":"LOT-140"},"geometry":{"type":"Polygon","coordinates":[[[121.050895787346619,14.691626469233087],[121.050963934646845,14.691554915888084],[121.051008201269255,14.691590974269594],[121.050934811868999,14.691663091014762],[121.050895787346619,14.691626469233087]]]}},
{"type":"Feature","properties":{"fid":141,"lot_id":"LOT-104"},"geometry":{"type":"Polygon","coordinates":[[[121.051077143240178,14.691768623490866],[121.051137914463354,14.691706971697979],[121.051238705760312,14.691797298737439],[121.051173487862286,14.691860384266672],[121.051077143240178,14.691768623490866]]]}},
{"type":"Feature","properties":{"fid":142,"lot_id":"LOT-109"},"geometry":{"type":"Polygon","coordinates":[[[121.050176329187948,14.691423743871585],[121.050239540891269,14.691356327532228],[121.050344893730156,14.691444125551483],[121.05028006121394,14.691513109684726],[121.050176329187948,14.691423743871585]]]}},
{"type":"Feature","properties":{"fid":143,"lot_id":"LOT-106"},"geometry":{"type":"Polygon","coordinates":[[[121.051024014337742,14.691825105833573],[121.051075880350766,14.691770232171329],[121.051171508312208,14.691861165661255],[121.051119642299227,14.691911335846388],[121.051024014337742,14.691825105833573]]]}},
{"type":"Feature","properties":{"fid":144,"lot_id":"LOT-108"},"geometry":{"type":"Polygon","coordinates":[[[121.050934869627952,14.691911335846388],[121.051024014337742,14.691829809289693],[121.051118021486317,14.691911335846388],[121.051030497589409,14.692002269277596],[121.050934869627952,14.691911335846388]]]}},
{"type":"Feature","properties":{"fid":145,"lot_id":"LOT-116"},"geometry":{"type":"Polygon","coordinates":[[[121.050898747848308,14.692162987508326],[121.050931561159089,14.692025115119598],[121.05097257779758,14.692034042111436],[121.050988984452985,14.692050904206122],[121.051071017729953,14.692057847421196],[121.051046407746838,14.692195719789266],[121.050898747848308,14.692162987508326]]]}},
{"type":"Feature","properties":{"fid":146,"lot_id":"LOT-119"},"geometry":{"type":"Polygon","coordinates":[[[121.051049483994731,14.692192744127562],[121.051073068561891,14.692061814972577],[121.051073068561891,14.692061814972577],[121.0512238047083,14.692077685177365],[121.051207398052924,14.692216549420044],[121.051049483994731,14.692192744127562]]]}},
{"type":"Feature","properties":{"fid":147,"lot_id":"LOT-126"},"geometry":{"type":"Polygon","coordinates":[[[121.051232463594403,14.692218750104354],[121.051250855484511,14.692082779690564],[121.051250855484511,14.692082779690564],[121.051349383467326,14.692092945705733],[121.051328364164334,14.692236540619529],[121.051232463594403,14.692218750104354]]]}},
{"type":"Feature","properties":{"fid":148,"lot_id":"LOT-132"},"geometry":{"type":"Polygon","coordinates":[[[121.051332305283651,14.692236540619529],[121.051352010880223,14.692094216457598],[121.051492577469006,14.69210946547938],[121.051474185578911,14.692254331133253],[121.051332305283651,14.692236540619529]]]}},
{"type":"Feature","properties":{"fid":149,"lot_id":"LOT-141"},"geometry":{"type":"Polygon","coordinates":[[[121.051266301047562,14.691728354817721],[121.051384902454558,14.691605560111881],[121.051423045620609,14.691637844172693],[121.051303252239705,14.691761215361105],[121.051266301047562,14.691728354817721]]]}},
{"type":"Feature","properties":{"fid":150,"lot_id":"LOT-142"},"geometry":{"type":"Polygon","coordinates":[[[121.051305040200575,14.691762944863253],[121.05142364160757,14.691640150176847],[121.051462380760597,14.691674740236339],[121.051342587379693,14.691795228900807],[121.051305040200575,14.691762944863253]]]}},
{"type":"Feature","properties":{"fid":151,"lot_id":"LOT-144"},"geometry":{"type":"Polygon","coordinates":[[[121.051345196725549,14.691797229948483],[121.051440214497489,14.69169991231511],[121.051471654201407,14.691727620812358],[121.051471654201407,14.691727620812358],[121.051378732409788,14.691824938433387],[121.051345196725549,14.691797229948483]]]}},
{"type":"Feature","properties":{"fid":152,"lot_id":"LOT-145"},"geometry":{"type":"Polygon","coordinates":[[[121.051378033749685,14.691826965883367],[121.051472352861524,14.691728296629314],[121.051498901944839,14.691749922771006],[121.051403185512825,14.691849267831874],[121.051378033749685,14.691826965883367]]]}},
{"type":"Feature","properties":{"fid":153,"lot_id":"LOT-146"},"geometry":{"type":"Polygon","coordinates":[[[121.051404582832987,14.691850619465038],[121.051498203284794,14.691751274404792],[121.051531040308902,14.691777631261912],[121.051433227896609,14.691875624677175],[121.051404582832987,14.691850619465038]]]}},
{"type":"Feature","properties":{"fid":154,"lot_id":"LOT-148"},"geometry":{"type":"Polygon","coordinates":[[[121.051446502438267,14.691866163245892],[121.051529642988683,14.691783037796316],[121.051556192072042,14.691806015566025],[121.051473051521597,14.691890492639793],[121.051446502438267,14.691866163245892]]]}},
{"type":"Feature","properties":{"fid":155,"lot_id":"LOT-149"},"geometry":{"type":"Polygon","coordinates":[[[121.0514737501817,14.691892520089164],[121.051556192072042,14.691807367199466],[121.051584138475548,14.69183372404982],[121.051502395245308,14.691918201112872],[121.0514737501817,14.691892520089164]]]}},
{"type":"Feature","properties":{"fid":156,"lot_id":"LOT-150"},"geometry":{"type":"Polygon","coordinates":[[[121.05150379256547,14.691919552745615],[121.051584837135607,14.691835075683086],[121.051619071479905,14.69186481161282],[121.051535232269401,14.691947261215013],[121.05150379256547,14.691919552745615]]]}},
{"type":"Feature","properties":{"fid":157,"lot_id":"LOT-151"},"geometry":{"type":"Polygon","coordinates":[[[121.051540122890003,14.69195807427529],[121.051635140661944,14.691862108346641],[121.051699417390012,14.691918876929249],[121.051699417390012,14.691918876929249],[121.051601604977733,14.692014167016882],[121.051540122890003,14.69195807427529]]]}},
{"type":"Feature","properties":{"fid":158,"lot_id":"LOT-152"},"geometry":{"type":"Polygon","coordinates":[[[121.051591125076413,14.692041875474281],[121.051591125076413,14.692041875474281],[121.051706403990906,14.69192563509286],[121.051778365979928,14.691989837636756],[121.051656799124657,14.692107429615602],[121.051591125076413,14.692041875474281]]]}},
{"type":"Feature","properties":{"fid":159,"lot_id":"LOT-153"},"geometry":{"type":"Polygon","coordinates":[[[121.051657130131105,14.692110302700506],[121.051778349445996,14.691993046900151],[121.051824176260141,14.692030225575367],[121.051701478660917,14.692148911303937],[121.051657130131105,14.692110302700506]]]}},
{"type":"Feature","properties":{"fid":160,"lot_id":"LOT-154"},"geometry":{"type":"Polygon","coordinates":[[[121.051702956945277,14.692150341252075],[121.051822697975808,14.692034515422103],[121.051865568221302,14.692068834192938],[121.051741392337789,14.692188949848425],[121.051702956945277,14.692150341252075]]]}},
{"type":"Feature","properties":{"fid":161,"lot_id":"LOT-155"},"geometry":{"type":"Polygon","coordinates":[[[121.051744348906411,14.692190379796306],[121.051865568221302,14.692074553987551],[121.051939482437689,14.692136041770215],[121.051939482437689,14.692136041770215],[121.051813828269815,14.692259017283634],[121.051744348906411,14.692190379796306]]]}},
{"type":"Feature","properties":{"fid":162,"lot_id":"LOT-156"},"geometry":{"type":"Polygon","coordinates":[[[121.051636434150552,14.692286186283075],[121.051654173562468,14.692190379796306],[121.051729566063187,14.69226330712587],[121.051723652925858,14.692296195913602],[121.051636434150552,14.692286186283075]]]}},
{"type":"Feature","properties":{"fid":163,"lot_id":"LOT-157"},"geometry":{"type":"Polygon","coordinates":[[[121.051558085081169,14.692270456862765],[121.051586172483397,14.692123172235741],[121.05165269527815,14.692190379796306],[121.051637912434842,14.692281896441285],[121.051558085081169,14.692270456862765]]]}},
{"type":"Feature","properties":{"fid":164,"lot_id":"LOT-158"},"geometry":{"type":"Polygon","coordinates":[[[121.051830067583765,14.692339783338349],[121.05185553103783,14.692230064107068],[121.051980533448699,14.692259173296256],[121.051958542283785,14.692364414178616],[121.051830067583765,14.692339783338349]]]}},
{"type":"Feature","properties":{"fid":165,"lot_id":"LOT-159"},"geometry":{"type":"Polygon","coordinates":[[[121.051769881237789,14.692479731257482],[121.051795344691868,14.692344261673147],[121.051979376018949,14.692378968764743],[121.051949282845982,14.692514438327551],[121.051769881237789,14.692479731257482]]]}},
{"type":"Feature","properties":{"fid":166,"lot_id":"LOT-092"},"geometry":{"type":"Polygon","coordinates":[[[121.050703580845394,14.692030794877821],[121.050793750857977,14.69193823302534],[121.050836075557768,14.691975613778178],[121.050742225136517,14.692069955649757],[121.050703580845394,14.692030794877821]]]}},
{"type":"Feature","properties":{"fid":167,"lot_id":"LOT-076"},"geometry":{"type":"Polygon","coordinates":[[[121.050864975581874,14.691845816353705],[121.050957829301439,14.691750938416483],[121.05102714264136,14.691812925340129],[121.050935596720663,14.691907803250444],[121.050864975581874,14.691845816353705]]]}},
{"type":"Feature","properties":{"fid":168,"lot_id":"LOT-140"},"geometry":{"type":"Polygon","coordinates":[[[121.050927243033186,14.691675088987346],[121.051000171664015,14.691599788984528],[121.05105671183847,14.691648932147206],[121.050983783207613,14.691725817395668],[121.050927243033186,14.691675088987346]]]}},
{"type":"Feature","properties":{"fid":169,"lot_id":"LOT-143"},"geometry":{"type":"Polygon","coordinates":[[[121.0509690335969,14.691748011070597],[121.05104523991902,14.691667162672484],[121.051106696630399,14.691721854239187],[121.051027212617015,14.69180111735505],[121.0509690335969,14.691748011070597]]]}},
{"type":"Feature","properties":{"fid":170,"lot_id":"LOT-051"},"geometry":{"type":"Polygon","coordinates":[[[121.051636574664556,14.692718082927689],[121.051670724990856,14.692547629431132],[121.051786836100234,14.692563485575954],[121.051758149826171,14.692737903093086],[121.051636574664556,14.692718082927689]]]}}
]
}
